NORAD_CAT_ID,OBJECT_NAME,OBJECT_TYPE,EPOCH,MEAN_MOTION,ECCENTRICITY,INCLINATION,RA_OF_ASC_NODE,ARG_OF_PERICENTER,MEAN_ANOMALY,BSTAR,MEAN_MOTION_DOT,MEAN_MOTION_DDOT,TLE_LINE0,TLE_LINE1,TLE_LINE2,SEMIMAJOR_AXIS,PERIOD,APOGEE,PERIGEE,DECAYED
49732.0,STARLINK-3246,PAYLOAD,2022-06-21 20:38:59,15.08837652,0.0002996,53.2174,130.158,53.832,306.2949,5.056e-05,5.16e-06,0.0,0 STARLINK-3246,1 49732U 21115J   22172.86040721  .00000516  00000-0  50560-4 0  9999,2 49732  53.2174 130.1580 0002996  53.8320 306.2949 15.08837652 31668,6917.888000000001,95.438,541.825,537.68,0.0
49732.0,STARLINK-3246,PAYLOAD,2022-06-21 22:14:22,15.08837971,0.0002996,53.2174,129.8606,54.0935,306.0335,5.1659e-05,5.34e-06,0.0,0 STARLINK-3246,1 49732U 21115J   22172.92664703  .00000534  00000-0  51659-4 0  9998,2 49732  53.2174 129.8606 0002996  54.0935 306.0335 15.08837971 30566,6917.887,95.438,541.8240000000002,537.679,0.0
49732.0,STARLINK-3246,PAYLOAD,2022-06-22 06:11:17,15.08841902,0.0002942,53.2173,128.3734,53.9489,306.1776,4.5465e-05,4.35e-06,0.0,0 STARLINK-3246,1 49732U 21115J   22173.25784462  .00000435  00000-0  45465-4 0  9998,2 49732  53.2173 128.3734 0002942  53.9489 306.1776 15.08841902 30619,6917.875,95.437,541.775,537.7040000000002,0.0
49732.0,STARLINK-3246,PAYLOAD,2022-06-22 14:08:14,15.08832759,0.0002975,53.2173,126.8868,54.719,305.408,-4.0179e-05,-9.28e-06,0.0,0 STARLINK-3246,1 49732U 21115J   22173.58905370 -.00000928  00000-0 -40179-4 0  9993,2 49732  53.2173 126.8868 0002975  54.7190 305.4080 15.08832759 31772,6917.903,95.438,541.826,537.7090000000002,0.0
49732.0,STARLINK-3246,PAYLOAD,2022-06-23 02:51:18,15.08837751,0.0002823,53.2165,124.5078,53.2149,306.9102,1.8544e-05,7e-08,0.0,0 STARLINK-3246,1 49732U 21115J   22174.11896950  .00000007  00000-0  18544-4 0  9993,2 49732  53.2165 124.5078 0002823  53.2149 306.9102 15.08837751 31858,6917.887,95.438,541.705,537.799,0.0
49732.0,STARLINK-3246,PAYLOAD,2022-06-23 06:02:05,15.08840743,0.0002918999999999,53.217,123.9132,54.894,305.2325,4.915e-05,4.94e-06,0.0,0 STARLINK-3246,1 49732U 21115J   22174.25144685  .00000494  00000-0  49150-4 0  9996,2 49732  53.2170 123.9132 0002919  54.8940 305.2325 15.08840743 30763,6917.878000000002,95.438,541.762,537.724,0.0
49732.0,STARLINK-3246,PAYLOAD,2022-06-23 13:59:00,15.08844404,0.0002944,53.2172,122.4266,55.3203,304.8067,7.7466e-05,9.45e-06,0.0,0 STARLINK-3246,1 49732U 21115J   22174.58264301  .00000945  00000-0  77466-4 0  9992,2 49732  53.2172 122.4266 0002944  55.3203 304.8067 15.08844404 31928,6917.8669999999975,95.437,541.769,537.695,0.0
49732.0,STARLINK-3246,PAYLOAD,2022-06-24 02:42:06,15.08838279,0.0002981,53.2178,120.0479,56.7455,303.3822,-2.5698e-05,-6.98e-06,0.0,0 STARLINK-3246,1 49732U 21115J   22175.11257012 -.00000698  00000-0 -25698-4 0  9990,2 49732  53.2178 120.0479 0002981  56.7455 303.3822 15.08838279 32005,6917.886,95.438,541.813,537.688,0.0
49732.0,STARLINK-3246,PAYLOAD,2022-06-24 05:52:52,15.08835626,0.0003016,53.2177,119.453,60.8166,299.3128,-1.5328e-05,-5.33e-06,0.0,0 STARLINK-3246,1 49732U 21115J   22175.24505172 -.00000533  00000-0 -15328-4 0  9994,2 49732  53.2177 119.4530 0003016  60.8166 299.3128 15.08835626 30913,6917.894,95.438,541.845,537.672,0.0
49732.0,STARLINK-3246,PAYLOAD,2022-06-24 13:49:47,15.08835308,0.000296,53.2176,117.9663,57.8163,302.3115,5.669800000000001e-05,6.14e-06,0.0,0 STARLINK-3246,1 49732U 21115J   22175.57624961  .00000614  00000-0  56698-4 0  9991,2 49732  53.2176 117.9663 0002960  57.8163 302.3115 15.08835308 30965,6917.895,95.438,541.807,537.712,0.0
49732.0,STARLINK-3246,PAYLOAD,2022-06-25 05:43:39,15.088339499999998,0.0002853999999999,53.2174,114.9926,56.8715,303.2551,-5.3257e-05,-1.136e-05,0.0,0 STARLINK-3246,1 49732U 21115J   22176.23865370 -.00001136  00000-0 -53257-4 0  9996,2 49732  53.2174 114.9926 0002854  56.8715 303.2551 15.08833950 32176,6917.899,95.438,541.738,537.79,0.0
49732.0,STARLINK-3246,PAYLOAD,2022-06-26 02:23:39,15.08838109,0.0002801,53.217,111.1267,57.6303,302.496,5.0303e-05,5.12e-06,0.0,0 STARLINK-3246,1 49732U 21115J   22177.09976846  .00000512  00000-0  50303-4 0  9996,2 49732  53.2170 111.1267 0002801  57.6303 302.4960 15.08838109 32304,6917.886,95.438,541.689,537.813,0.0
49732.0,STARLINK-3246,PAYLOAD,2022-06-26 05:34:25,15.08844133,0.0002835,53.217,110.5317,58.0151,302.1117,8.406e-05,1.05e-05,0.0,0 STARLINK-3246,1 49732U 21115J   22177.23224369  .00001050  00000-0  84060-4 0  9993,2 49732  53.2170 110.5317 0002835  58.0151 302.1117 15.08844133 32323,6917.868,95.437,541.694,537.7719999999998,0.0
49732.0,STARLINK-3246,PAYLOAD,2022-06-27 05:25:12,15.08882613,0.0002785,53.2177,106.0719,56.1017,304.024,-0.0006069,-9.946e-05,0.0,0 STARLINK-3246,1 49732U 21115J   22178.22584424 -.00009946  00000-0 -60690-3 0  9990,2 49732  53.2177 106.0719 0002785  56.1017 304.0240 15.08882613 31366,6917.75,95.435,541.5419999999998,537.689,0.0
49732.0,STARLINK-3246,PAYLOAD,2022-06-28 02:05:14,15.08839152,0.0002931,53.2178,102.2055,61.1902,298.9384,-3.8111e-05,-8.95e-06,0.0,0 STARLINK-3246,1 49732U 21115J   22179.08697452 -.00000895  00000-0 -38111-4 0  9999,2 49732  53.2178 102.2055 0002931  61.1902 298.9384 15.08839152 32608,6917.8830000000025,95.438,541.776,537.72,0.0
49732.0,STARLINK-3246,PAYLOAD,2022-06-28 11:37:33,15.08834074,0.000276,53.2172,100.4217,58.3968,301.7293,-2.4006e-05,-6.71e-06,0.0,0 STARLINK-3246,1 49732U 21115J   22179.48441832 -.00000671  00000-0 -24006-4 0  9992,2 49732  53.2172 100.4217 0002760  58.3968 301.7293 15.08834074 31555,6917.899,95.438,541.673,537.854,0.0
49732.0,STARLINK-3246,PAYLOAD,2022-06-28 17:59:06,15.08832567,0.0002704,53.2172,99.232,58.7881,301.3376,2.5754e-05,1.21e-06,0.0,0 STARLINK-3246,1 49732U 21115J   22179.74937821  .00000121  00000-0  25754-4 0  9998,2 49732  53.2172  99.2320 0002704  58.7881 301.3376 15.08832567 31598,6917.903,95.438,541.639,537.898,0.0
49732.0,STARLINK-3246,PAYLOAD,2022-06-29 11:28:20,15.08838742,0.0002388,53.2172,95.9611,56.2814,303.8405,2.8238000000000013e-05,1.61e-06,0.0,0 STARLINK-3246,1 49732U 21115J   22180.47801625  .00000161  00000-0  28238-4 0  9996,2 49732  53.2172  95.9611 0002388  56.2814 303.8405 15.08838742 32818,6917.884,95.438,541.401,538.097,0.0
49732.0,STARLINK-3246,PAYLOAD,2022-06-30 03:22:12,15.08830887,0.0002604,53.2174,92.9875,58.1579,301.9666,3.7796e-05,3.13e-06,0.0,0 STARLINK-3246,1 49732U 21115J   22181.14042420  .00000313  00000-0  37796-4 0  9999,2 49732  53.2174  92.9875 0002604  58.1579 301.9666 15.08830887 32910,6917.908,95.438,541.575,537.972,0.0
49732.0,STARLINK-3246,PAYLOAD,2022-06-30 06:32:58,15.08831804,0.0002626,53.2175,92.3927,59.19300000000001,300.932,4.2876e-05,3.94e-06,0.0,0 STARLINK-3246,1 49732U 21115J   22181.27290418  .00000394  00000-0  42876-4 0  9999,2 49732  53.2175  92.3927 0002626  59.1930 300.9320 15.08831804 31824,6917.905,95.438,541.587,537.9540000000002,0.0
49732.0,STARLINK-3246,PAYLOAD,2022-07-01 03:12:59,15.08839538,0.0002519,53.2175,88.5273,61.0307,299.0937,8.6817e-05,1.094e-05,0.0,0 STARLINK-3246,1 49732U 21115J   22182.13401936  .00001094  00000-0  86817-4 0  9995,2 49732  53.2175  88.5273 0002519  61.0307 299.0937 15.08839538 33068,6917.882,95.438,541.489,538.004,0.0
49732.0,STARLINK-3246,PAYLOAD,2022-07-01 11:09:55,15.08811553,0.0002711,53.2175,87.0407,61.6064,298.5201,0.00050115,7.691e-05,0.0,0 STARLINK-3246,1 49732U 21115J   22182.46522541  .00007691  00000-0  50115-3 0  9997,2 49732  53.2175  87.0407 0002711  61.6064 298.5201 15.08811553 32009,6917.967,95.439,541.7080000000002,537.957,0.0
49732.0,STARLINK-3246,PAYLOAD,2022-07-02 03:03:47,15.08832595,0.0002505,53.2178,84.0672,63.0033,297.1215,-1.3523e-05,-5.04e-06,0.0,0 STARLINK-3246,1 49732U 21115J   22183.12762805 -.00000504  00000-0 -13523-4 0  9991,2 49732  53.2178  84.0672 0002505  63.0033 297.1215 15.08832595 33219,6917.903,95.438,541.501,538.035,0.0
49732.0,STARLINK-3246,PAYLOAD,2022-07-02 11:00:42,15.08835684,0.0002513,53.2179,82.5804,63.435,296.6899,1.0798e-05,-1.17e-06,0.0,0 STARLINK-3246,1 49732U 21115J   22183.45882614 -.00000117  00000-0  10798-4 0  9998,2 49732  53.2179  82.5804 0002513  63.4350 296.6899 15.08835684 32151,6917.894,95.438,541.497,538.02,0.0
49732.0,STARLINK-3246,PAYLOAD,2022-07-03 02:54:33,15.08848218,0.0002527,53.2178,79.6067,64.2882,295.8371,3.7124e-05,3.03e-06,0.0,0 STARLINK-3246,1 49732U 21115J   22184.12121624  .00000303  00000-0  37124-4 0  9998,2 49732  53.2178  79.6067 0002527  64.2882 295.8371 15.08848218 32256,6917.855,95.437,541.4680000000002,537.972,0.0
49732.0,STARLINK-3246,PAYLOAD,2022-07-03 21:59:10,15.08844198,0.0002489,53.2175,76.0382,63.7574,296.3673,9.6167e-05,1.243e-05,0.0,0 STARLINK-3246,1 49732U 21115J   22184.91609240  .00001243  00000-0  96167-4 0  9996,2 49732  53.2175  76.0382 0002489  63.7574 296.3673 15.08844198 32370,6917.868,95.437,541.4540000000002,538.011,0.0
49732.0,STARLINK-3246,PAYLOAD,2022-07-04 02:45:20,15.0883966,0.0002462,53.2177,75.1457,63.67,296.4545,5.4403e-05,5.78e-06,0.0,0 STARLINK-3246,1 49732U 21115J   22185.11481638  .00000578  00000-0  54403-4 0  9995,2 49732  53.2177  75.1457 0002462  63.6700 296.4545 15.08839660 33510,6917.880999999999,95.438,541.45,538.043,0.0
49732.0,STARLINK-3246,PAYLOAD,2022-07-04 09:06:53,15.08825319,0.0002456,53.2172,73.9563,62.9711,297.1531,-6.367e-05,-1.301e-05,0.0,0 STARLINK-3246,1 49732U 21115J   22185.37979055 -.00001301  00000-0 -63670-4 0  9991,2 49732  53.2172  73.9563 0002456  62.9711 297.1531 15.08825319 32446,6917.925,95.438,541.489,538.091,0.0
49732.0,STARLINK-3246,PAYLOAD,2022-07-04 21:49:58,15.08832552,0.000254,53.2173,71.57600000000002,61.1031,299.0216,-7.173e-05,-1.4300000000000004e-05,0.0,0 STARLINK-3246,1 49732U 21115J   22185.90970881 -.00001430  00000-0 -71730-4 0  9997,2 49732  53.2173  71.5760 0002540  61.1031 299.0216 15.08832552 32527,6917.903,95.438,541.525,538.011,0.0
